TIANMU-1 12             
1 58646U 23205B   25182.60502561  .00004267  00000+0  18851-3 0  9998
2 58646  97.3700 205.1093 0009246 138.7418 221.4519 15.22221173 84091
TIANMU-1 13             
1 58647U 23205C   25182.57239714  .00004010  00000+0  17745-3 0  9999
2 58647  97.3730 205.2173 0009726 121.4219 238.7970 15.22195659 84086
TIANMU-1 14             
1 58648U 23205D   25182.62112289  .00004208  00000+0  18589-3 0  9999
2 58648  97.3659 204.7661 0010701 126.1198 234.1030 15.22215529 84093
TIANMU-1 19             
1 58660U 23208A   25182.60000962  .00005652  00000+0  23346-3 0  9999
2 58660  97.4295 294.5822 0007280 112.9477 247.2529 15.24384777 83799
TIANMU-1 20             
1 58661U 23208B   25182.51869316  .00005707  00000+0  22734-3 0  9997
2 58661  97.4230 294.7883 0009622 122.5989 237.6179 15.25586203 83833
TIANMU-1 21             
1 58662U 23208C   25182.55648677  .00006171  00000+0  23153-3 0  9999
2 58662  97.4275 296.0872 0009210 120.3416 239.8735 15.27549424 83906
TIANMU-1 22             
1 58663U 23208D   25182.58698666  .00005393  00000+0  22316-3 0  9991
2 58663  97.4290 294.6700 0005585 129.8140 230.3590 15.24354528 83807
TIANMU-1 15             
1 58700U 24004A   25182.55450889  .00004084  00000+0  18125-3 0  9997
2 58700  97.4662   4.9269 0007839 137.9528 222.2311 15.22109100 82350
TIANMU-1 16             
1 58701U 24004B   25182.60419462  .00004292  00000+0  19008-3 0  9998
2 58701  97.4597   4.5048 0008073 142.6406 217.5393 15.22149404 82367
TIANMU-1 17             
1 58702U 24004C   25182.58835278  .00004472  00000+0  19706-3 0  9998
2 58702  97.4634   4.8227 0006724 141.6840 218.4875 15.22310678 82351
TIANMU-1 18             
1 58703U 24004D   25182.57188253  .00004251  00000+0  18800-3 0  9991
2 58703  97.4651   4.9627 0006765 131.7163 228.4653 15.22213296 82352
INSAT-3DS               
1 58990U 24033A   25182.57961462 -.00000153  00000+0  00000+0 0  9999
2 58990   0.0734  94.1729 0001260   2.5665 113.8555  1.00272629 43556
METEOR-M2 4             
1 59051U 24039A   25182.59188214  .00000004  00000+0  21151-4 0  9991
2 59051  98.6502 142.3217 0008204 102.5600 257.6496 14.22369974 69427
GOES 19                 
1 60133U 24119A   25182.55233284 -.00000244  00000+0  00000+0 0  9999
2 60133   0.0400 183.6753 0000185  49.3919 170.4096  1.00272421  3448
